NORAD_CAT_ID,OBJECT_NAME,OBJECT_TYPE,EPOCH,MEAN_MOTION,ECCENTRICITY,INCLINATION,RA_OF_ASC_NODE,ARG_OF_PERICENTER,MEAN_ANOMALY,BSTAR,MEAN_MOTION_DOT,MEAN_MOTION_DDOT,TLE_LINE0,TLE_LINE1,TLE_LINE2,SEMIMAJOR_AXIS,PERIOD,APOGEE,PERIGEE,DECAYED
51860.0,STARLINK-3559,PAYLOAD,2023-09-20 19:08:04,15.08834055,0.000139,53.2164,93.3812,81.9883,278.1267,-5.8871e-05,-1.225e-05,0.0,0 STARLINK-3559,1 51860U 22022J   23263.79727594 -.00001225  00000-0 -58871-4 0  9999,2 51860  53.2164  93.3812 0001390  81.9883 278.1267 15.08834055 87118,6917.899,95.438,540.725,538.802,0.0
51860.0,STARLINK-3559,PAYLOAD,2023-09-21 06:15:46,15.08834557,0.0001448,53.2179,91.2997,90.1656,269.9502,-2.7175e-06,-3.31e-06,0.0,0 STARLINK-3559,1 51860U 22022J   23264.26095639 -.00000331  00000-0 -27175-5 0  9991,2 51860  53.2179  91.2997 0001448  90.1656 269.9502 15.08834557 87183,6917.897,95.438,540.764,538.76,0.0
51860.0,STARLINK-3559,PAYLOAD,2023-09-21 18:58:51,15.08845238,0.0001427,53.2163,88.92,91.432,268.6835,0.00013,1.782e-05,0.0,0 STARLINK-3559,1 51860U 22022J   23264.79087219  .00001782  00000-0  13000-3 0  9993,2 51860  53.2163  88.9200 0001427  91.4320 268.6835 15.08845238 87267,6917.864,95.437,540.717,538.742,0.0
51860.0,STARLINK-3559,PAYLOAD,2023-09-22 12:28:06,15.08833545,0.000147,53.2167,85.6476,100.8125,259.3033,0.0004637,7.098e-05,0.0,0 STARLINK-3559,1 51860U 22022J   23265.51952034  .00007098  00000-0  46370-3 0  9992,2 51860  53.2167  85.6476 0001470 100.8125 259.3033 15.08833545 87373,6917.9,95.438,540.782,538.748,0.0
51860.0,STARLINK-3559,PAYLOAD,2023-09-22 18:49:38,15.08845122,0.0001494,53.2165,84.4587,95.6263,264.4899,0.00032353,4.865e-05,0.0,0 STARLINK-3559,1 51860U 22022J   23265.78447443  .00004865  00000-0  32353-3 0  9999,2 51860  53.2165  84.4587 0001494  95.6263 264.4899 15.08845122 87417,6917.865,95.437,540.763,538.696,0.0
51860.0,STARLINK-3559,PAYLOAD,2023-09-23 12:18:53,15.0884138,0.0001492,53.2164,81.188,93.981,266.1353,2.2237e-05,6.6e-07,0.0,0 STARLINK-3559,1 51860U 22022J   23266.51311469  .00000066  00000-0  22237-4 0  9999,2 51860  53.2164  81.1880 0001492  93.9810 266.1353 15.08841380 87521,6917.876,95.437,540.773,538.709,0.0
51860.0,STARLINK-3559,PAYLOAD,2023-09-24 10:34:17,15.0884388,0.000141,53.2169,77.0255,92.779,267.3363,-5.0797e-05,-1.096e-05,0.0,0 STARLINK-3559,1 51860U 22022J   23267.44047720 -.00001096  00000-0 -50797-4 0  9996,2 51860  53.2169  77.0255 0001410  92.7790 267.3363 15.08843880 87666,6917.869,95.437,540.709,538.758,0.0
51860.0,STARLINK-3559,PAYLOAD,2023-09-24 18:31:12,15.08846311,0.0001444,53.217,75.5388,94.5635,265.5522,5.0455e-05,5.15e-06,0.0,0 STARLINK-3559,1 51860U 22022J   23267.77167205  .00000515  00000-0  50455-4 0  9997,2 51860  53.2170  75.5388 0001444  94.5635 265.5522 15.08846311 87718,6917.861,95.437,540.725,538.727,0.0
51860.0,STARLINK-3559,PAYLOAD,2023-09-25 04:03:31,15.08845386,0.0001267,53.2173,73.7548,90.9399,269.1738,8.5554e-05,1.074e-05,0.0,0 STARLINK-3559,1 51860U 22022J   23268.16911134  .00001074  00000-0  85554-4 0  9998,2 51860  53.2173  73.7548 0001267  90.9399 269.1738 15.08845386 87775,6917.864,95.437,540.605,538.852,0.0
51860.0,STARLINK-3559,PAYLOAD,2023-09-25 18:21:59,15.08840854,0.0001653,53.2195,71.0781,83.7266,276.3915,0.00013212,1.815e-05,0.0,0 STARLINK-3559,1 51860U 22022J   23268.76527430  .00001815  00000-0  13212-3 0  9990,2 51860  53.2195  71.0781 0001653  83.7266 276.3915 15.08840854 87863,6917.878,95.438,540.886,538.599,0.0
51860.0,STARLINK-3559,PAYLOAD,2023-09-25 19:57:22,15.0884467,0.0001505,53.2193,70.7803,70.729,289.3865,0.00010015,1.306e-05,0.0,0 STARLINK-3559,1 51860U 22022J   23268.83151212  .00001306  00000-0  10015-3 0  9992,2 51860  53.2193  70.7803 0001505  70.7290 289.3865 15.08844670 87870,6917.866,95.437,540.772,538.69,0.0
51860.0,STARLINK-3559,PAYLOAD,2023-09-26 18:12:47,15.08833744,0.0001498,53.2187,66.6188,79.8677,280.2484,2.6752e-05,1.38e-06,0.0,0 STARLINK-3559,1 51860U 22022J   23269.75888620  .00000138  00000-0  26752-4 0  9992,2 51860  53.2187  66.6188 0001498  79.8677 280.2484 15.08833744 88017,6917.9,95.438,540.801,538.728,0.0
51860.0,STARLINK-3559,PAYLOAD,2023-09-26 19:48:10,15.08840224,0.0001447,53.2188,66.318,81.6952,278.4205,5.7339e-06,-1.97e-06,0.0,0 STARLINK-3559,1 51860U 22022J   23269.82512237 -.00000197  00000-0  57339-5 0  9990,2 51860  53.2188  66.3180 0001447  81.6952 278.4205 15.08840224 88020,6917.88,95.438,540.746,538.744,0.0
51860.0,STARLINK-3559,PAYLOAD,2023-09-27 10:06:38,15.0883791,0.0001693,53.2194,63.6449,77.229,282.8891,8.941e-05,1.135e-05,0.0,0 STARLINK-3559,1 51860U 22022J   23270.42128455  .00001135  00000-0  89410-4 0  9999,2 51860  53.2194  63.6449 0001693  77.2290 282.8891 15.08837910 88112,6917.887,95.438,540.923,538.581,0.0
51860.0,STARLINK-3559,PAYLOAD,2023-09-27 16:28:11,15.088438,0.0001514,53.2175,62.4567,81.8793,278.2371,0.00012424,1.69e-05,0.0,0 STARLINK-3559,1 51860U 22022J   23270.68624104  .00001690  00000-0  12424-3 0  9995,2 51860  53.2175  62.4567 0001514  81.8793 278.2371 15.08843800 88151,6917.869,95.437,540.781,538.686,0.0
51860.0,STARLINK-3559,PAYLOAD,2023-09-28 14:43:35,15.08844435,0.000128,53.2167,58.2921,99.529,260.5847,0.00015382,2.161e-05,0.0,0 STARLINK-3559,1 51860U 22022J   23271.61360076  .00002161  00000-0  15382-3 0  9994,2 51860  53.2167  58.2921 0001280  99.5290 260.5847 15.08844435 88299,6917.867,95.437,540.617,538.846,0.0
51860.0,STARLINK-3559,PAYLOAD,2023-09-28 16:18:58,15.08845295,0.0001286,53.2168,57.9948,98.3356,261.7782,0.00016303,2.308e-05,0.0,0 STARLINK-3559,1 51860U 22022J   23271.67984031  .00002308  00000-0  16303-3 0  9990,2 51860  53.2168  57.9948 0001286  98.3356 261.7782 15.08845295 88309,6917.864,95.437,540.619,538.84,0.0
51860.0,STARLINK-3559,PAYLOAD,2023-09-29 14:34:22,15.08843073,0.0001315,53.2177,53.8321,80.6903,279.4238,4.614e-05,4.47e-06,0.0,0 STARLINK-3559,1 51860U 22022J   23272.60720248  .00000447  00000-0  46140-4 0  9997,2 51860  53.2177  53.8321 0001315  80.6903 279.4238 15.08843073 88443,6917.871,95.437,540.646,538.826,0.0
51860.0,STARLINK-3559,PAYLOAD,2023-09-29 17:45:08,15.08849208,0.0001407,53.2188,53.2355,98.4646,261.6506,7.3093e-05,8.76e-06,0.0,0 STARLINK-3559,1 51860U 22022J   23272.73967683  .00000876  00000-0  73093-4 0  9990,2 51860  53.2188  53.2355 0001407  98.4646 261.6506 15.08849208 88468,6917.852,95.437,540.691,538.744,0.0
51860.0,STARLINK-3559,PAYLOAD,2023-09-30 16:00:32,15.08843257,0.0001288,53.2184,49.0735,81.7968,278.317,4.845e-05,4.83e-06,0.0,0 STARLINK-3559,1 51860U 22022J   23273.66704107  .00000483  00000-0  48450-4 0  9996,2 51860  53.2184  49.0735 0001288  81.7968 278.3170 15.08843257 88604,6917.87,95.437,540.626,538.844,0.0
51860.0,STARLINK-3559,PAYLOAD,2023-10-01 12:40:32,15.08850196,0.000133,53.2182,45.2065,89.3158,270.7987,0.00012491,1.701e-05,0.0,0 STARLINK-3559,1 51860U 22022J   23274.52815622  .00001701  00000-0  12491-3 0  9996,2 51860  53.2182  45.2065 0001330  89.3158 270.7987 15.08850196 88735,6917.849,95.437,540.634,538.794,0.0
51860.0,STARLINK-3559,PAYLOAD,2023-10-01 15:51:18,15.08858485,0.0001307,53.2175,44.6141,92.6226,267.4916,0.00022849,3.352e-05,0.0,0 STARLINK-3559,1 51860U 22022J   23274.66063101  .00003352  00000-0  22849-3 0  9990,2 51860  53.2175  44.6141 0001307  92.6226 267.4916 15.08858485 88758,6917.824,95.436,540.593,538.785,0.0
51860.0,STARLINK-3559,PAYLOAD,2023-10-01 19:02:04,15.08862701,0.0001301,53.2182,44.0165,88.0673,272.0469,0.00029327,4.385e-05,0.0,0 STARLINK-3559,1 51860U 22022J   23274.79310613  .00004385  00000-0  29327-3 0  9992,2 51860  53.2182  44.0165 0001301  88.0673 272.0469 15.08862701 88778,6917.811,95.436,540.576,538.776,0.0
51860.0,STARLINK-3559,PAYLOAD,2023-10-02 17:17:29,15.08840425,0.0001505,53.2185,39.8544,74.734,285.3818,-2.5741e-05,-6.98e-06,0.0,0 STARLINK-3559,1 51860U 22022J   23275.72047789 -.00000698  00000-0 -25741-4 0  9999,2 51860  53.2185  39.8544 0001505  74.7340 285.3818 15.08840425 88913,6917.879,95.438,540.785,538.703,0.0
51860.0,STARLINK-3559,PAYLOAD,2023-10-03 01:14:25,15.08831639,0.0001458,53.2188,38.3668,75.4335,284.6818,-0.00014127,-2.535e-05,0.0,0 STARLINK-3559,1 51860U 22022J   23276.05168220 -.00002535  00000-0 -14127-3 0  9997,2 51860  53.2188  38.3668 0001458  75.4335 284.6818 15.08831639 88960,6917.906,95.438,540.78,538.762,0.0
51860.0,STARLINK-3559,PAYLOAD,2023-10-03 13:57:29,15.08842775,0.0001382,53.2175,35.9905,91.3048,268.8102,-3.3241e-05,-8.17e-06,0.0,0 STARLINK-3559,1 51860U 22022J   23276.58159682 -.00000817  00000-0 -33241-4 0  9997,2 51860  53.2175  35.9905 0001382  91.3048 268.8102 15.08842775 89040,6917.872,95.437,540.693,538.781,0.0
51860.0,STARLINK-3559,PAYLOAD,2023-10-03 15:32:52,15.08847643,0.0001431,53.2178,35.6928,83.2229,276.8926,3.4385e-05,2.59e-06,0.0,0 STARLINK-3559,1 51860U 22022J   23276.64783466  .00000259  00000-0  34385-4 0  9995,2 51860  53.2178  35.6928 0001431  83.2229 276.8926 15.08847643 89054,6917.857,95.437,540.712,538.732,0.0
51860.0,STARLINK-3559,PAYLOAD,2023-10-04 07:26:45,15.08835566,0.0001972,53.219,32.7201,68.9446,291.1756,9.8786e-05,1.284e-05,0.0,0 STARLINK-3559,1 51860U 22022J   23277.31024550  .00001284  00000-0  98786-4 0  9996,2 51860  53.2190  32.7201 0001972  68.9446 291.1756 15.08835566 89154,6917.894,95.438,541.123,538.395,0.0
51860.0,STARLINK-3559,PAYLOAD,2023-10-04 13:48:17,15.08838564,0.0002119,53.2193,31.533,64.5903,295.5308,0.00023308,3.423e-05,0.0,0 STARLINK-3559,1 51860U 22022J   23277.57520548  .00003423  00000-0  23308-3 0  9996,2 51860  53.2193  31.5330 0002119  64.5903 295.5308 15.08838564 89197,6917.885,95.438,541.216,538.284,0.0
51860.0,STARLINK-3559,PAYLOAD,2023-10-04 15:23:40,15.08846642,0.0001827,53.2189,31.2321,68.8047,291.314,0.00026846,3.988e-05,0.0,0 STARLINK-3559,1 51860U 22022J   23277.64143951  .00003988  00000-0  26846-3 0  9999,2 51860  53.2189  31.2321 0001827  68.8047 291.3140 15.08846642 89206,6917.86,95.437,540.989,538.461,0.0
